{"289213813": {"lat": "48.0142488", "lon": "0.1870427", "highway": "stop", "road_direction": 296.4376290749875}, "313177906": {"lat": "48.0017379", "lon": "0.1749482", "highway": "stop", "road_direction": 9.369093296077605}, "341323239": {"lat": "48.0206456", "lon": "0.2162964", "highway": "stop", "road_direction": 292.5546522651928}, "1329833283": {"lat": "48.0192721", "lon": "0.2064249", "highway": "stop", "road_direction": 121.27335128465782}, "1364412209": {"lat": "47.9957043", "lon": "0.2271572", "highway": "stop", "road_direction": 349.0520375742068}, "1378070881": {"lat": "47.9760058", "lon": "0.2231541", "highway": "stop", "road_direction": 356.8506829413705}, "1379114733": {"lat": "47.9817743", "lon": "0.2187199", "highway": "stop", "road_direction": 135.2834055627136}, "1379114735": {"lat": "47.9817876", "lon": "0.2183645", "highway": "stop", "road_direction": 141.4776213156731}, "1379114747": {"lat": "47.9827832", "lon": "0.2199262", "highway": "stop", "road_direction": 143.31573819269073}, "1381079938": {"lat": "47.9685950", "lon": "0.2244058", "highway": "stop", "road_direction": 64.37525801479997}, "1381601094": {"lat": "47.9970643", "lon": "0.2190554", "highway": "stop", "road_direction": 12.978253312127505}, "1399326480": {"lat": "48.0081526", "lon": "0.2456430", "highway": "stop", "road_direction": 235.04459773056675}, "1403778992": {"lat": "48.0207734", "lon": "0.1612635", "highway": "stop", "road_direction": 88.44133667423726}, "1407124875": {"lat": "48.0165028", "lon": "0.1552244", "highway": "stop", "road_direction": 200.7743613644382}, "1481687277": {"lat": "47.9486880", "lon": "0.1950262", "highway": "stop", "road_direction": 22.37902150687555}, "1535942582": {"lat": "47.9846235", "lon": "0.1862827", "highway": "stop", "direction": "forward", "road_direction": 288.4133186288916}, "1710801366": {"lat": "47.9637459", "lon": "0.2250873", "highway": "stop", "road_direction": 139.681578714995}, "1710801431": {"lat": "47.9655806", "lon": "0.2290448", "highway": "stop", "road_direction": 334.47711388479155}, "1711643959": {"lat": "47.9851502", "lon": "0.1864968", "highway": "stop", "direction": "forward", "road_direction": 126.32278830318398}, "1768662958": {"lat": "47.9973699", "lon": "0.1791992", "highway": "stop", "road_direction": 114.67311552687774}, "1927501477": {"lat": "47.9699108", "lon": "0.2334380", "highway": "stop", "road_direction": 208.55577293600874}, "1931535763": {"lat": "47.9748777", "lon": "0.2287868", "highway": "stop", "road_direction": 18.003949159240864}, "1931536255": {"lat": "47.9774846", "lon": "0.2305812", "highway": "stop", "road_direction": 203.57830256499986}, "1931536578": {"lat": "48.0011295", "lon": "0.1889434", "highway": "stop", "direction": "forward", "road_direction": 179.8928882238518}, "1933013673": {"lat": "47.9982213", "lon": "0.1934028", "highway": "stop", "road_direction": 91.9152605916013}, "1933013676": {"lat": "47.9986342", "lon": "0.1913637", "highway": "stop", "road_direction": 100.74901942636265}, "1933013681": {"lat": "47.9991201", "lon": "0.1918734", "highway": "stop", "road_direction": 332.1081766981844}, "1933013685": {"lat": "48.0001630", "lon": "0.1928764", "highway": "stop", "road_direction": 341.90960188209124}, "1933013691": {"lat": "48.0005060", "lon": "0.1944360", "highway": "stop", "road_direction": 342.3229533785805}, "1934089435": {"lat": "47.9963921", "lon": "0.2345323", "highway": "stop", "road_direction": 1.4768702893781585}, "1937955318": {"lat": "47.9944155", "lon": "0.2257321", "highway": "stop", "road_direction": 343.92727235210964}, "1937955326": {"lat": "47.9944903", "lon": "0.2256921", "highway": "stop", "road_direction": 155.64199792156344}, "1938075165": {"lat": "47.9915671", "lon": "0.2075024", "highway": "stop", "road_direction": 87.5384586571552}, "1938075187": {"lat": "47.9917306", "lon": "0.2140686", "highway": "stop", "road_direction": 122.53823835153254}, "1944635930": {"lat": "47.9846572", "lon": "0.2240731", "highway": "stop", "road_direction": 262.94655384843225}, "1953107524": {"lat": "47.9815381", "lon": "0.2168335", "highway": "stop", "road_direction": 68.0607328902735}, "1953107531": {"lat": "47.9815582", "lon": "0.2167484", "highway": "stop", "road_direction": 167.497327964239}, "1958625878": {"lat": "47.9733899", "lon": "0.2163041", "highway": "stop", "road_direction": 157.92483797785818}, "1958625902": {"lat": "47.9738702", "lon": "0.2171142", "highway": "stop", "road_direction": 43.94489223392442}, "1958625912": {"lat": "47.9739764", "lon": "0.2171748", "highway": "stop", "road_direction": 160.40780857829213}, "1958625995": {"lat": "47.9746332", "lon": "0.2155814", "highway": "stop", "road_direction": 255.7218000916071}, "1962555834": {"lat": "47.9785761", "lon": "0.2135316", "highway": "stop", "road_direction": 209.37584501193174}, "1962555845": {"lat": "47.9788552", "lon": "0.2143276", "highway": "stop", "direction": "forward", "road_direction": 149.87529934538384}, "1962740907": {"lat": "47.9618709", "lon": "0.2251990", "highway": "stop", "road_direction": 142.4401271991176}, "1975202375": {"lat": "47.9867936", "lon": "0.1685932", "highway": "stop", "road_direction": 204.88419676687332}, "1996834841": {"lat": "48.0004229", "lon": "0.1985756", "highway": "stop", "road_direction": 52.48496415658372}, "1998648842": {"lat": "48.0097678", "lon": "0.1727835", "highway": "stop", "road_direction": 1.208837735563623}, "1998648858": {"lat": "48.0128248", "lon": "0.1823900", "highway": "stop", "road_direction": 107.18125381767406}, "1998648860": {"lat": "48.0128447", "lon": "0.1822788", "highway": "stop", "road_direction": 105.29417370095416}, "1998648913": {"lat": "48.0154064", "lon": "0.1811561", "highway": "stop", "road_direction": 215.13081244349496}, "1998648928": {"lat": "48.0157876", "lon": "0.1862646", "highway": "stop", "road_direction": 264.10237904963054}, "1999478746": {"lat": "47.9966892", "lon": "0.1789670", "highway": "stop", "road_direction": 82.29253344589328}, "2145636953": {"lat": "47.9606762", "lon": "0.2241575", "highway": "stop", "direction": "forward", "road_direction": 85.06936752745459}, "2145636974": {"lat": "47.9608647", "lon": "0.2230558", "highway": "stop", "direction": "backward", "road_direction": 142.44555258253394}, "2145637002": {"lat": "47.9619447", "lon": "0.2240988", "highway": "stop", "road_direction": 322.2636850492338}, "2324648171": {"lat": "47.9841216", "lon": "0.2473440", "highway": "stop", "road_direction": 0.22964639128410783}, "2329237591": {"lat": "48.0116676", "lon": "0.2425549", "highway": "stop", "road_direction": 180.4079004622007}, "2347471051": {"lat": "47.9432820", "lon": "0.2074582", "highway": "stop", "road_direction": 81.49118128849334}, "2367305507": {"lat": "47.9760512", "lon": "0.2226248", "highway": "stop", "road_direction": 354.6805486753324}, "2367305601": {"lat": "47.9762981", "lon": "0.2243948", "highway": "stop", "road_direction": 159.83655407449874}, "2367305732": {"lat": "47.9764202", "lon": "0.2223377", "highway": "stop", "road_direction": 45.42811492981289}, "2367305878": {"lat": "47.9768900", "lon": "0.2216488", "highway": "stop", "road_direction": 39.148794784114074}, "2367306054": {"lat": "47.9773712", "lon": "0.2264023", "highway": "stop", "road_direction": 126.58860977437038}, "2367306069": {"lat": "47.9774283", "lon": "0.2207229", "highway": "stop", "road_direction": 315.01158465135825}, "2367306072": {"lat": "47.9774476", "lon": "0.2206290", "highway": "stop", "road_direction": 237.03590729076447}, "2367306084": {"lat": "47.9774970", "lon": "0.2207100", "highway": "stop", "road_direction": 220.7091347878903}, "2367306086": {"lat": "47.9775029", "lon": "0.2206083", "highway": "stop", "road_direction": 313.3069017117851}, "2367306190": {"lat": "47.9786563", "lon": "0.2146692", "highway": "stop", "direction": "backward", "road_direction": 154.29088181529858}, "2367306204": {"lat": "47.9790715", "lon": "0.2149716", "highway": "stop", "direction": "forward", "road_direction": 305.08401410598754}, "2367306217": {"lat": "47.9803279", "lon": "0.2165466", "highway": "stop", "direction": "forward", "road_direction": 315.6424634125392}, "2367306219": {"lat": "47.9804477", "lon": "0.2163644", "highway": "stop", "direction": "backward", "road_direction": 316.1022625565391}, "2393217227": {"lat": "47.9928291", "lon": "0.1661757", "highway": "stop", "road_direction": 230.41853163347378}, "2393221535": {"lat": "48.0095609", "lon": "0.1634495", "highway": "stop", "road_direction": 13.522821524020872}, "2393222159": {"lat": "48.0151393", "lon": "0.1440164", "highway": "stop", "road_direction": 330.1851031012998}, "2393222186": {"lat": "48.0156821", "lon": "0.1454880", "highway": "stop", "road_direction": 308.4811462029878}, "2393222188": {"lat": "48.0166911", "lon": "0.1440120", "highway": "stop", "road_direction": 354.1687968962746}, "2396613885": {"lat": "47.9738507", "lon": "0.2307597", "highway": "stop", "road_direction": 151.64282519769574}, "2396613915": {"lat": "47.9739691", "lon": "0.2306465", "highway": "stop", "road_direction": 137.98528910863874}, "2396613999": {"lat": "47.9748221", "lon": "0.2287141", "highway": "stop", "road_direction": 80.35062627806413}, "2396614113": {"lat": "47.9758782", "lon": "0.2360438", "highway": "stop", "road_direction": 108.07554741439805}, "2396614126": {"lat": "47.9759646", "lon": "0.2361308", "highway": "stop", "road_direction": 202.32340334562758}, "2396614145": {"lat": "47.9760916", "lon": "0.2232012", "highway": "stop", "road_direction": 172.35137462509257}, "2396614184": {"lat": "47.9770181", "lon": "0.2322322", "highway": "stop", "road_direction": 201.97918169797575}, "2396614211": {"lat": "47.9780682", "lon": "0.2289037", "highway": "stop", "road_direction": 200.71348115802263}, "2399337532": {"lat": "47.9709593", "lon": "0.2276502", "highway": "stop", "road_direction": 314.440280659007}, "2427030912": {"lat": "48.0066157", "lon": "0.1969497", "highway": "stop", "road_direction": 135.81187595700368}, "2450447450": {"lat": "48.0167231", "lon": "0.1442875", "highway": "stop", "road_direction": 194.616583380867}, "2450447495": {"lat": "48.0198988", "lon": "0.1556973", "highway": "stop", "road_direction": 172.8482338836319}, "2450447498": {"lat": "48.0199789", "lon": "0.1594974", "highway": "stop", "road_direction": 357.94164958633456}, "2450447500": {"lat": "48.0200490", "lon": "0.1556855", "highway": "stop", "road_direction": 178.52190834362875}, "2450587234": {"lat": "48.0094221", "lon": "0.2002279", "highway": "stop", "road_direction": 236.11487772454151}, "2450587284": {"lat": "48.0159348", "lon": "0.2034504", "highway": "stop", "direction": "backward", "road_direction": 139.80280274907034}, "2456760035": {"lat": "47.9743212", "lon": "0.2083904", "highway": "stop", "road_direction": 93.75683596007849}, "2456760045": {"lat": "47.9765389", "lon": "0.2142002", "highway": "stop", "road_direction": 70.68836743460356}, "2456760051": {"lat": "47.9778768", "lon": "0.2114017", "highway": "stop", "road_direction": 181.9228087345104}, "2456907907": {"lat": "47.9707916", "lon": "0.2106837", "highway": "stop", "road_direction": 100.07715231956396}, "2456907909": {"lat": "47.9710627", "lon": "0.2105969", "highway": "stop", "road_direction": 121.4634763104741}, "2456907913": {"lat": "47.9715413", "lon": "0.2059341", "highway": "stop", "road_direction": 14.105210231420141}, "2456907916": {"lat": "47.9716176", "lon": "0.2059088", "highway": "stop", "road_direction": 19.837632560132178}, "2458538387": {"lat": "47.9673597", "lon": "0.2098141", "highway": "stop", "road_direction": 96.0339395500059}, "2458538408": {"lat": "47.9688894", "lon": "0.2059367", "highway": "stop", "road_direction": 5.5429578987883605}, "2458538411": {"lat": "47.9689496", "lon": "0.2059467", "highway": "stop", "road_direction": 6.906882276697295}, "2458538427": {"lat": "47.9699447", "lon": "0.2044347", "highway": "stop", "road_direction": 277.52029834987263}, "2458538454": {"lat": "47.9713290", "lon": "0.2138674", "highway": "stop", "road_direction": 6.470446626882299}, "2458538455": {"lat": "47.9713983", "lon": "0.2131505", "highway": "stop", "road_direction": 188.45141621273152}, "2458538456": {"lat": "47.9714275", "lon": "0.2135594", "highway": "stop", "road_direction": 27.285058536775225}, "2460659660": {"lat": "47.9603584", "lon": "0.2081998", "highway": "stop", "road_direction": 100.54236639245447}, "2460659734": {"lat": "47.9633882", "lon": "0.2090661", "highway": "stop", "road_direction": 188.96590887601332}, "2460659737": {"lat": "47.9635558", "lon": "0.2091062", "highway": "stop", "road_direction": 189.3636610630508}, "2460659749": {"lat": "47.9639307", "lon": "0.2194190", "highway": "stop", "road_direction": 326.90288049227826}, "2460659754": {"lat": "47.9652613", "lon": "0.2191524", "highway": "stop", "road_direction": 247.5224029162174}, "2498321639": {"lat": "47.9635612", "lon": "0.2014630", "highway": "stop", "road_direction": 281.67918866533415}, "2498321719": {"lat": "47.9643475", "lon": "0.2060438", "highway": "stop", "road_direction": 335.6028940055292}, "2498321733": {"lat": "47.9644139", "lon": "0.2059994", "highway": "stop", "road_direction": 333.9669042389082}, "2498321750": {"lat": "47.9645349", "lon": "0.2065297", "highway": "stop", "road_direction": 335.0240460511167}, "2498321754": {"lat": "47.9645928", "lon": "0.2064881", "highway": "stop", "road_direction": 333.6540017504272}, "2498321836": {"lat": "47.9660236", "lon": "0.2095777", "highway": "stop", "road_direction": 188.2319439007031}, "2498321839": {"lat": "47.9661382", "lon": "0.2096053", "highway": "stop", "road_direction": 189.95592473476944}, "2498321843": {"lat": "47.9661810", "lon": "0.2027001", "highway": "stop", "road_direction": 286.9260635466657}, "2498321918": {"lat": "47.9670084", "lon": "0.2030552", "highway": "stop", "road_direction": 101.78912129286138}, "2498321970": {"lat": "47.9674168", "lon": "0.2030330", "highway": "stop", "road_direction": 107.4889127251798}, "2526492305": {"lat": "48.0174453", "lon": "0.1991955", "highway": "stop", "road_direction": 61.94992976578525}, "2526492428": {"lat": "48.0189511", "lon": "0.2014492", "highway": "stop", "road_direction": 85.023491983711}, "2535167837": {"lat": "48.0037198", "lon": "0.2033685", "highway": "stop", "road_direction": 192.41308782822767}, "2535397758": {"lat": "48.0004441", "lon": "0.2119072", "highway": "stop", "road_direction": 256.545327745842}, "2536388251": {"lat": "47.9962383", "lon": "0.2273363", "highway": "stop", "road_direction": 356.1773931187447}, "2536388255": {"lat": "47.9964415", "lon": "0.2280814", "highway": "stop", "road_direction": 180.65922864909095}, "2544918766": {"lat": "47.9988372", "lon": "0.2068391", "highway": "stop", "road_direction": 274.3613615596471}, "2544918769": {"lat": "47.9988897", "lon": "0.2093709", "highway": "stop", "road_direction": 194.2083306590068}, "2544918770": {"lat": "47.9998229", "lon": "0.2060155", "highway": "stop", "road_direction": 88.44773626756853}, "2544918779": {"lat": "48.0007224", "lon": "0.2038790", "highway": "stop", "road_direction": 230.07022361775748}, "2549611359": {"lat": "47.9974925", "lon": "0.2053974", "highway": "stop", "road_direction": 359.5965682638318}, "2549611360": {"lat": "47.9975508", "lon": "0.2053996", "highway": "stop", "road_direction": 1.3670613983151771}, "2549611365": {"lat": "47.9981790", "lon": "0.2053844", "highway": "stop", "road_direction": 91.76038174441398}, "2549611372": {"lat": "47.9997769", "lon": "0.2047182", "highway": "stop", "road_direction": 0.20028162092429974}, "2549611373": {"lat": "47.9998304", "lon": "0.2047193", "highway": "stop", "road_direction": 1.2362774501624798}, "2550471966": {"lat": "47.9921873", "lon": "0.2108771", "highway": "stop", "road_direction": 260.81368145297506}, "2550471967": {"lat": "47.9926286", "lon": "0.2139849", "highway": "stop", "road_direction": 255.75049854828035}, "2550471968": {"lat": "47.9926560", "lon": "0.2141302", "highway": "stop", "road_direction": 249.57998651217466}, "2550471971": {"lat": "47.9928241", "lon": "0.2107206", "highway": "stop", "road_direction": 90.13551149104384}, "2550471974": {"lat": "47.9928287", "lon": "0.2071406", "highway": "stop", "road_direction": 89.97937491543979}, "2550471990": {"lat": "47.9934761", "lon": "0.2076034", "highway": "stop", "road_direction": 175.8381709687685}, "2551181305": {"lat": "47.9954991", "lon": "0.2167262", "highway": "stop", "road_direction": 282.3644936822973}, "2552264780": {"lat": "48.0059198", "lon": "0.2040878", "highway": "stop", "road_direction": 193.9379187543435}, "2552264783": {"lat": "48.0062666", "lon": "0.2023286", "highway": "stop", "road_direction": 287.18149061917006}, "2552264784": {"lat": "48.0062906", "lon": "0.2022898", "highway": "stop", "road_direction": 153.90167818759357}, "2552264788": {"lat": "48.0065659", "lon": "0.2066575", "highway": "stop", "road_direction": 103.74766688462613}, "2552264792": {"lat": "48.0069534", "lon": "0.2044699", "highway": "stop", "road_direction": 15.63473834169974}, "2552966736": {"lat": "48.0064232", "lon": "0.2074962", "highway": "stop", "road_direction": 104.22559479251433}, "2556952323": {"lat": "48.0071080", "lon": "0.2138260", "highway": "stop", "road_direction": 178.47006717575545}, "2556952324": {"lat": "48.0071577", "lon": "0.2138232", "highway": "stop", "road_direction": 177.13309214890012}, "2556952426": {"lat": "48.0090440", "lon": "0.2270375", "highway": "stop", "road_direction": 29.22484824424478}, "2556952467": {"lat": "48.0114812", "lon": "0.2289023", "highway": "stop", "road_direction": 159.80180586007643}, "2556952471": {"lat": "48.0124772", "lon": "0.2313027", "highway": "stop", "road_direction": 76.79061366867973}, "2556952472": {"lat": "48.0125118", "lon": "0.2315491", "highway": "stop", "road_direction": 79.93017622143671}, "2558773937": {"lat": "48.0091386", "lon": "0.2072560", "highway": "stop", "road_direction": 165.6671500696149}, "2558773945": {"lat": "48.0105324", "lon": "0.2068185", "highway": "stop", "road_direction": 259.320253332181}, "2558773951": {"lat": "48.0118939", "lon": "0.2079393", "highway": "stop", "road_direction": 7.8768315942206115}, "2558773953": {"lat": "48.0120210", "lon": "0.2072805", "highway": "stop", "road_direction": 19.166751050265933}, "2558773957": {"lat": "48.0123589", "lon": "0.2088583", "highway": "stop", "road_direction": 47.352822952354735}, "2558773971": {"lat": "48.0139997", "lon": "0.2088943", "highway": "stop", "road_direction": 139.2035622894191}, "2558774019": {"lat": "48.0164588", "lon": "0.2154063", "highway": "stop", "road_direction": 147.0230160341938}, "2558884617": {"lat": "48.0103527", "lon": "0.2140311", "highway": "stop", "road_direction": 90.89404463524362}, "2558884623": {"lat": "48.0104842", "lon": "0.2136336", "highway": "stop", "road_direction": 342.20756621837074}, "2558884666": {"lat": "48.0118210", "lon": "0.2115050", "highway": "stop", "road_direction": 163.95639710413076}, "2558884694": {"lat": "48.0125418", "lon": "0.2144162", "highway": "stop", "road_direction": 335.8319153078808}, "2558884703": {"lat": "48.0127441", "lon": "0.2150886", "highway": "stop", "road_direction": 166.72701184879116}, "2558884811": {"lat": "48.0165470", "lon": "0.2181541", "highway": "stop", "road_direction": 75.48649501357045}, "2562963853": {"lat": "48.0172369", "lon": "0.2084796", "highway": "stop", "road_direction": 102.30460515176316}, "2562963857": {"lat": "48.0174764", "lon": "0.2130945", "highway": "stop", "road_direction": 200.30746578237074}, "2562963868": {"lat": "48.0176414", "lon": "0.2153504", "highway": "stop", "road_direction": 318.9814787633797}, "2562963876": {"lat": "48.0177880", "lon": "0.2085445", "highway": "stop", "road_direction": 6.55257388125619}, "2562963887": {"lat": "48.0183534", "lon": "0.2135792", "highway": "stop", "road_direction": 204.7615167265174}, "2562963901": {"lat": "48.0185627", "lon": "0.2137996", "highway": "stop", "road_direction": 311.84137900689916}, "2562963926": {"lat": "48.0189721", "lon": "0.2066910", "highway": "stop", "road_direction": 88.6803008537934}, "2562963929": {"lat": "48.0190153", "lon": "0.2064579", "highway": "stop", "road_direction": 245.57655782493077}, "2562963942": {"lat": "48.0192748", "lon": "0.2143564", "highway": "stop", "road_direction": 131.05071339908034}, "2562964018": {"lat": "48.0199255", "lon": "0.2131162", "highway": "stop", "road_direction": 9.931935242095744}, "2562964020": {"lat": "48.0200173", "lon": "0.2142516", "highway": "stop", "road_direction": 4.316208656501261}, "2570404652": {"lat": "48.0183397", "lon": "0.2205681", "highway": "stop", "road_direction": 147.87518958648891}, "2570404669": {"lat": "48.0185247", "lon": "0.2175695", "highway": "stop", "road_direction": 44.850465109082975}, "2570404700": {"lat": "48.0188839", "lon": "0.2217572", "highway": "stop", "road_direction": 323.52583243482724}, "2570404758": {"lat": "48.0194646", "lon": "0.2162654", "highway": "stop", "road_direction": 223.00397866989496}, "2570404819": {"lat": "48.0199189", "lon": "0.2241435", "highway": "stop", "road_direction": 337.0068123441468}, "2570404843": {"lat": "48.0201006", "lon": "0.2245576", "highway": "stop", "road_direction": 149.20309948148457}, "2578408772": {"lat": "48.0130621", "lon": "0.2163848", "highway": "stop", "road_direction": 170.57110472512514}, "2578408777": {"lat": "48.0132197", "lon": "0.2167137", "highway": "stop", "road_direction": 337.8018360462456}, "2578408787": {"lat": "48.0133384", "lon": "0.2178255", "highway": "stop", "road_direction": 346.2772057358207}, "2578408804": {"lat": "48.0137453", "lon": "0.2193893", "highway": "stop", "road_direction": 159.7774425676015}, "2578408849": {"lat": "48.0149029", "lon": "0.2239771", "highway": "stop", "road_direction": 334.85278228292066}, "2608033040": {"lat": "48.0107654", "lon": "0.2135903", "highway": "stop", "road_direction": 80.43410611612812}, "2619750802": {"lat": "48.0169745", "lon": "0.2195291", "highway": "stop", "road_direction": 148.15026530603592}, "2619751375": {"lat": "48.0182272", "lon": "0.2348066", "highway": "stop", "road_direction": 105.40843051439546}, "2619751431": {"lat": "48.0185190", "lon": "0.2240090", "highway": "stop", "road_direction": 78.71054900904484}, "2619751451": {"lat": "48.0191332", "lon": "0.2259860", "highway": "stop", "road_direction": 334.40754171062565}, "2622567303": {"lat": "48.0096703", "lon": "0.2202453", "highway": "stop", "road_direction": 70.52127186279824}, "2622567502": {"lat": "48.0124912", "lon": "0.2234230", "highway": "stop", "road_direction": 55.914393886852}, "2657991792": {"lat": "48.0016165", "lon": "0.2124651", "highway": "stop", "road_direction": 184.07911002115102}, "2657991892": {"lat": "48.0025330", "lon": "0.2140820", "highway": "stop", "road_direction": 297.4832737573577}, "2657991995": {"lat": "48.0040027", "lon": "0.2140632", "highway": "stop", "road_direction": 356.9092382260441}, "2664729864": {"lat": "48.0071947", "lon": "0.2148973", "highway": "stop", "road_direction": 174.84089991336162}, "2664729865": {"lat": "48.0072525", "lon": "0.2156662", "highway": "stop", "road_direction": 352.1906081819709}, "2665694522": {"lat": "48.0038261", "lon": "0.2186257", "highway": "stop", "road_direction": 181.78950806526623}, "2665694525": {"lat": "48.0038714", "lon": "0.2200594", "highway": "stop", "road_direction": 142.95701958110934}, "2665694527": {"lat": "48.0039111", "lon": "0.2200590", "highway": "stop", "road_direction": 74.52536660366053}, "2665694533": {"lat": "48.0040339", "lon": "0.2147072", "highway": "stop", "road_direction": 89.66909734439332}, "2665694553": {"lat": "48.0042221", "lon": "0.2110476", "highway": "stop", "road_direction": 97.7643776743289}, "2665694612": {"lat": "48.0054809", "lon": "0.2347660", "highway": "stop", "road_direction": 349.64350556311547}, "2667593176": {"lat": "48.0074376", "lon": "0.2174596", "highway": "stop", "road_direction": 82.73676392378593}, "2667593179": {"lat": "48.0074444", "lon": "0.2175343", "highway": "stop", "road_direction": 81.80018317995005}, "2691176602": {"lat": "48.0075198", "lon": "0.2245883", "highway": "stop", "road_direction": 319.6570777258721}, "2691176604": {"lat": "48.0076032", "lon": "0.2244872", "highway": "stop", "road_direction": 322.27545095425415}, "2691176629": {"lat": "48.0086268", "lon": "0.2263648", "highway": "stop", "road_direction": 317.390619726777}, "2691722757": {"lat": "48.0084530", "lon": "0.2263008", "highway": "stop", "road_direction": 322.7980702316874}, "2711649975": {"lat": "48.0001606", "lon": "0.2212488", "highway": "stop", "road_direction": 97.61893107618015}, "2711650060": {"lat": "48.0029947", "lon": "0.2235796", "highway": "stop", "road_direction": 196.83699872708536}, "2715673906": {"lat": "48.0102435", "lon": "0.1943566", "highway": "stop", "direction": "backward", "road_direction": 75.79492892585695}, "2715673915": {"lat": "48.0104885", "lon": "0.1935616", "highway": "stop", "road_direction": 222.4590241569246}, "2715673921": {"lat": "48.0107995", "lon": "0.1905557", "highway": "stop", "road_direction": 201.43814564711076}, "2715673941": {"lat": "48.0118056", "lon": "0.1911746", "highway": "stop", "road_direction": 199.9688462864023}, "2715673956": {"lat": "48.0130012", "lon": "0.1888428", "highway": "stop", "road_direction": 42.74895907622272}, "2715673957": {"lat": "48.0131972", "lon": "0.1900196", "highway": "stop", "road_direction": 310.1589914494785}, "2716115647": {"lat": "48.0139178", "lon": "0.1896545", "highway": "stop", "road_direction": 287.6489509862532}, "2722323693": {"lat": "48.0093132", "lon": "0.1933711", "highway": "stop", "road_direction": 280.73817038928973}, "2722323699": {"lat": "48.0094571", "lon": "0.1921921", "highway": "stop", "road_direction": 100.52365706757578}, "2724361519": {"lat": "48.0067823", "lon": "0.1904031", "highway": "stop", "road_direction": 39.59785436929165}, "2741977515": {"lat": "48.0158947", "lon": "0.1882111", "highway": "stop", "road_direction": 26.317218727187978}, "2741977519": {"lat": "48.0159757", "lon": "0.1888983", "highway": "stop", "road_direction": 262.38885985738045}, "2741977541": {"lat": "48.0167910", "lon": "0.1885167", "highway": "stop", "road_direction": 67.6727247431361}, "2777135308": {"lat": "48.0252675", "lon": "0.1802353", "highway": "stop", "road_direction": 346.5125930113881}, "2777135334": {"lat": "48.0261025", "lon": "0.1867246", "highway": "stop", "road_direction": 72.09733572823322}, "2777135350": {"lat": "48.0271891", "lon": "0.1825908", "highway": "stop", "road_direction": 119.16145139838281}, "2777135355": {"lat": "48.0272746", "lon": "0.1821714", "highway": "stop", "road_direction": 60.74809166925242}, "2777135366": {"lat": "48.0276056", "lon": "0.1831769", "highway": "stop", "road_direction": 133.2674415328365}, "2777135370": {"lat": "48.0276826", "lon": "0.1831137", "highway": "stop", "road_direction": 338.7582419899532}, "2781226307": {"lat": "48.0334234", "lon": "0.1759045", "highway": "stop", "road_direction": 60.3803028954283}, "2781408248": {"lat": "48.0257595", "lon": "0.1759638", "highway": "stop", "road_direction": 71.88638059028793}, "2781408336": {"lat": "48.0320921", "lon": "0.1748859", "highway": "stop", "road_direction": 92.28420109693714}, "2781408373": {"lat": "48.0337451", "lon": "0.1757609", "highway": "stop", "road_direction": 253.14828847902328}, "2788056816": {"lat": "48.0233777", "lon": "0.1827233", "highway": "stop", "road_direction": 246.15106240075204}, "2790149101": {"lat": "47.9888307", "lon": "0.2006755", "highway": "stop", "road_direction": 239.60003579198133}, "2790149112": {"lat": "47.9892669", "lon": "0.2003304", "highway": "stop", "road_direction": 149.0219018257153}, "2790149135": {"lat": "47.9898843", "lon": "0.1997891", "highway": "stop", "road_direction": 150.0020651147032}, "2790149148": {"lat": "47.9907438", "lon": "0.1990738", "highway": "stop", "road_direction": 150.84651486748993}, "2790149167": {"lat": "47.9917345", "lon": "0.1982502", "highway": "stop", "direction": "forward", "road_direction": 150.7781588897453}, "2800849531": {"lat": "47.9997405", "lon": "0.1823882", "highway": "stop", "road_direction": 123.95943458180133}, "2800849532": {"lat": "48.0001069", "lon": "0.1825877", "highway": "stop", "road_direction": 121.52086391304636}, "2800849536": {"lat": "48.0010350", "lon": "0.1870606", "highway": "stop", "road_direction": 25.657606942570368}, "2800849538": {"lat": "48.0010833", "lon": "0.1857998", "highway": "stop", "road_direction": 215.92903995746119}, "2800849539": {"lat": "48.0011039", "lon": "0.1871032", "highway": "stop", "road_direction": 20.840383276342937}, "2800849540": {"lat": "48.0011230", "lon": "0.1881179", "highway": "stop", "road_direction": 169.03184604776328}, "2800849542": {"lat": "48.0011754", "lon": "0.1871424", "highway": "stop", "road_direction": 57.94365883669686}, "2800849545": {"lat": "48.0015784", "lon": "0.1862772", "highway": "stop", "road_direction": 125.13576320552333}, "2800849584": {"lat": "48.0026612", "lon": "0.1875343", "highway": "stop", "road_direction": 216.78185390115488}, "2800849585": {"lat": "48.0027134", "lon": "0.1875924", "highway": "stop", "road_direction": 216.66830891616854}, "2800849614": {"lat": "48.0057827", "lon": "0.1903857", "highway": "stop", "road_direction": 132.39246002928826}, "2800849631": {"lat": "48.0085566", "lon": "0.1863112", "highway": "stop", "road_direction": 14.984483610859279}, "2800849632": {"lat": "48.0086654", "lon": "0.1863548", "highway": "stop", "road_direction": 15.262267524605972}, "2800849633": {"lat": "48.0098856", "lon": "0.1834498", "highway": "stop", "road_direction": 186.88415445796002}, "2800849634": {"lat": "48.0100174", "lon": "0.1834724", "highway": "stop", "road_direction": 6.096948748516593}, "2800849635": {"lat": "48.0104243", "lon": "0.1822999", "highway": "stop", "road_direction": 13.592358425961136}, "2803652633": {"lat": "47.9990634", "lon": "0.1871691", "highway": "stop", "direction": "backward", "road_direction": 214.20827072060837}, "2803652636": {"lat": "47.9991291", "lon": "0.1872350", "highway": "stop", "direction": "forward", "road_direction": 214.68483469348763}, "2803652646": {"lat": "47.9997058", "lon": "0.1857902", "highway": "stop", "road_direction": 36.09469491214882}, "2803652676": {"lat": "48.0004422", "lon": "0.1875984", "highway": "stop", "road_direction": 17.395762152763798}, "2803652679": {"lat": "48.0004811", "lon": "0.1866242", "highway": "stop", "road_direction": 305.3942829344641}, "2803652693": {"lat": "48.0008364", "lon": "0.1877653", "highway": "stop", "road_direction": 340.17278132872815}, "2814343585": {"lat": "47.9940067", "lon": "0.1934143", "highway": "stop", "road_direction": 36.987441749851094}, "2814343599": {"lat": "47.9946820", "lon": "0.1852184", "highway": "stop", "road_direction": 274.7201136152616}, "2814343805": {"lat": "47.9948122", "lon": "0.1830327", "highway": "stop", "road_direction": 25.038320014450278}, "2837776418": {"lat": "47.9854482", "lon": "0.1783327", "highway": "stop", "road_direction": 180.36866839721606}, "2837776456": {"lat": "47.9865441", "lon": "0.1815526", "highway": "stop", "road_direction": 90.99233566103969}, "2839445717": {"lat": "47.9917925", "lon": "0.1944948", "highway": "stop", "direction": "backward", "road_direction": 326.5277775491346}, "2839445722": {"lat": "47.9918840", "lon": "0.1944191", "highway": "stop", "direction": "backward", "road_direction": 329.1193751388643}, "2839445809": {"lat": "47.9927371", "lon": "0.1948861", "highway": "stop", "direction": "backward", "road_direction": 173.77001473978498}, "2839445810": {"lat": "47.9927373", "lon": "0.1947130", "highway": "stop", "direction": "forward", "road_direction": 80.24640025683253}, "2839445814": {"lat": "47.9927663", "lon": "0.1948129", "highway": "stop", "direction": "backward", "road_direction": 74.90107621246173}, "2841646470": {"lat": "47.9856999", "lon": "0.2045707", "highway": "stop", "road_direction": 150.67574292746392}, "2841646478": {"lat": "47.9858594", "lon": "0.2057827", "highway": "stop", "road_direction": 249.8552166149295}, "2841646516": {"lat": "47.9862316", "lon": "0.2041296", "highway": "stop", "road_direction": 151.22134025740488}, "2841646517": {"lat": "47.9862575", "lon": "0.2041083", "highway": "stop", "road_direction": 150.7262695029369}, "2841646521": {"lat": "47.9862976", "lon": "0.2076827", "highway": "stop", "road_direction": 159.7970126054704}, "2841646532": {"lat": "47.9865049", "lon": "0.2051303", "highway": "stop", "road_direction": 69.2578867933247}, "2841646538": {"lat": "47.9870332", "lon": "0.2072239", "highway": "stop", "road_direction": 69.23469635779423}, "2841646569": {"lat": "47.9878900", "lon": "0.2067704", "highway": "stop", "road_direction": 72.18819109681871}, "2841646579": {"lat": "47.9880164", "lon": "0.2054525", "highway": "stop", "road_direction": 345.44687944371054}, "2852909066": {"lat": "47.9878939", "lon": "0.2119659", "highway": "stop", "road_direction": 241.97789194035425}, "2852909391": {"lat": "47.9916807", "lon": "0.2107676", "highway": "stop", "road_direction": 87.07607114205275}, "2852909393": {"lat": "47.9917223", "lon": "0.2126324", "highway": "stop", "road_direction": 176.6952619670345}, "2856608221": {"lat": "47.9924739", "lon": "0.2191514", "highway": "stop", "road_direction": 263.14743649491754}, "2856608222": {"lat": "47.9925006", "lon": "0.2194824", "highway": "stop", "road_direction": 263.0779501015991}, "2856608703": {"lat": "47.9942680", "lon": "0.2232635", "highway": "stop", "road_direction": 103.82810197097974}, "2857969645": {"lat": "47.9957473", "lon": "0.2309546", "highway": "stop", "road_direction": 175.69401489650406}, "2857969679": {"lat": "47.9964251", "lon": "0.2294602", "highway": "stop", "road_direction": 94.32371068573177}, "2859957041": {"lat": "47.9915880", "lon": "0.2276424", "highway": "stop", "road_direction": 244.95516531749914}, "2859957058": {"lat": "47.9918645", "lon": "0.2377721", "highway": "stop", "road_direction": 58.81735955026264}, "2859957072": {"lat": "47.9921023", "lon": "0.2263214", "highway": "stop", "road_direction": 65.77823026843289}, "2864578020": {"lat": "48.0185754", "lon": "0.1830363", "highway": "stop", "road_direction": 61.99906939420275}, "2864578091": {"lat": "48.0229218", "lon": "0.1829244", "highway": "stop", "road_direction": 77.5593075899465}, "2864578555": {"lat": "48.0260209", "lon": "0.1773614", "highway": "stop", "road_direction": 164.33012394282497}, "2864578560": {"lat": "48.0261804", "lon": "0.1780024", "highway": "stop", "road_direction": 342.28109526530295}, "2864578564": {"lat": "48.0263100", "lon": "0.1784233", "highway": "stop", "road_direction": 163.3333698518024}, "2864578582": {"lat": "48.0268965", "lon": "0.1802306", "highway": "stop", "road_direction": 153.53934214598434}, "2866215997": {"lat": "48.0205762", "lon": "0.1717928", "highway": "stop", "road_direction": 135.5494134282829}, "2866512273": {"lat": "48.0132575", "lon": "0.1784408", "highway": "stop", "road_direction": 280.74947946720187}, "2866512276": {"lat": "48.0132689", "lon": "0.1783483", "highway": "stop", "road_direction": 279.800423505272}, "2866512632": {"lat": "48.0142329", "lon": "0.1787001", "highway": "stop", "road_direction": 280.27445506655556}, "2866512667": {"lat": "48.0143607", "lon": "0.1787488", "highway": "stop", "road_direction": 279.8813510138324}, "2866512807": {"lat": "48.0146053", "lon": "0.1787925", "highway": "stop", "road_direction": 100.18250493696341}, "2866513008": {"lat": "48.0149143", "lon": "0.1846259", "highway": "stop", "road_direction": 91.86385807368886}, "2869103857": {"lat": "48.0107940", "lon": "0.1794335", "highway": "stop", "road_direction": 294.06833195037655}, "2869103965": {"lat": "48.0117136", "lon": "0.1797198", "highway": "stop", "road_direction": 102.7480319439661}, "2869103968": {"lat": "48.0117217", "lon": "0.1860160", "highway": "stop", "road_direction": 336.67561042171354}, "2869103980": {"lat": "48.0120917", "lon": "0.1828743", "highway": "stop", "road_direction": 5.543858990920663}, "2869104114": {"lat": "48.0131301", "lon": "0.1743679", "highway": "stop", "road_direction": 110.25843866869565}, "2869104187": {"lat": "48.0149621", "lon": "0.1737326", "highway": "stop", "road_direction": 171.93302575485762}, "2869104190": {"lat": "48.0150126", "lon": "0.1734974", "highway": "stop", "road_direction": 172.77726765761534}, "2869104192": {"lat": "48.0150583", "lon": "0.1732806", "highway": "stop", "road_direction": 172.82297588396364}, "2869104301": {"lat": "48.0153024", "lon": "0.1730069", "highway": "stop", "road_direction": 171.7177714919356}, "2869104302": {"lat": "48.0153050", "lon": "0.1732343", "highway": "stop", "road_direction": 172.79541852420812}, "2869104303": {"lat": "48.0153329", "lon": "0.1734369", "highway": "stop", "road_direction": 172.79898205264215}, "2869104304": {"lat": "48.0153588", "lon": "0.1736488", "highway": "stop", "road_direction": 171.9133629677036}, "2869104305": {"lat": "48.0153622", "lon": "0.1727843", "highway": "stop", "road_direction": 172.42491103110518}, "2869104306": {"lat": "48.0153682", "lon": "0.1738696", "highway": "stop", "road_direction": 352.78672808982503}, "2869104307": {"lat": "48.0153848", "lon": "0.1729896", "highway": "stop", "road_direction": 172.27321253406376}, "2869104308": {"lat": "48.0153971", "lon": "0.1732163", "highway": "stop", "road_direction": 172.09888539771615}, "2869104310": {"lat": "48.0154176", "lon": "0.1734207", "highway": "stop", "road_direction": 172.5155713677798}, "2869104311": {"lat": "48.0154394", "lon": "0.1736323", "highway": "stop", "road_direction": 172.4330875308474}, "2869104312": {"lat": "48.0154489", "lon": "0.1738541", "highway": "stop", "road_direction": 352.3878639202273}, "2869104317": {"lat": "48.0160544", "lon": "0.1726471", "highway": "stop", "road_direction": 172.43204867288082}, "2869104318": {"lat": "48.0160766", "lon": "0.1728497", "highway": "stop", "road_direction": 172.2712119907743}, "2869104319": {"lat": "48.0160836", "lon": "0.1730743", "highway": "stop", "road_direction": 172.10774624881296}, "2869104320": {"lat": "48.0161096", "lon": "0.1732852", "highway": "stop", "road_direction": 172.56148255629068}, "2869104321": {"lat": "48.0161170", "lon": "0.1726351", "highway": "stop", "road_direction": 173.02005914375803}, "2869104322": {"lat": "48.0161268", "lon": "0.1734962", "highway": "stop", "road_direction": 172.4245631475863}, "2869104323": {"lat": "48.0161354", "lon": "0.1737164", "highway": "stop", "road_direction": 352.3351619188449}, "2869104324": {"lat": "48.0161374", "lon": "0.1728377", "highway": "stop", "road_direction": 172.7718117336468}, "2869104325": {"lat": "48.0161522", "lon": "0.1730605", "highway": "stop", "road_direction": 172.81558337484967}, "2869104326": {"lat": "48.0161730", "lon": "0.1732728", "highway": "stop", "road_direction": 172.4607814202783}, "2869104327": {"lat": "48.0161949", "lon": "0.1734828", "highway": "stop", "road_direction": 172.5863708617907}, "2869104328": {"lat": "48.0162212", "lon": "0.1736980", "highway": "stop", "road_direction": 351.035449855282}, "2870698003": {"lat": "48.0108653", "lon": "0.1863599", "highway": "stop", "road_direction": 89.73968566187841}, "2872777734": {"lat": "48.0166870", "lon": "0.1601931", "highway": "stop", "road_direction": 2.580149078286958}, "2872777745": {"lat": "48.0172207", "lon": "0.1616024", "highway": "stop", "road_direction": 85.62911603475047}, "2872777764": {"lat": "48.0181501", "lon": "0.1615830", "highway": "stop", "road_direction": 82.82095284274234}, "2912840008": {"lat": "48.0147655", "lon": "0.1597851", "highway": "stop", "road_direction": 204.82386248404413}, "2912840027": {"lat": "48.0151762", "lon": "0.1472206", "highway": "stop", "road_direction": 41.58261694317724}, "2912840032": {"lat": "48.0152389", "lon": "0.1557464", "highway": "stop", "road_direction": 8.615918042336837}, "2912840044": {"lat": "48.0153845", "lon": "0.1557662", "highway": "stop", "road_direction": 13.032331426851233}, "2912840069": {"lat": "48.0165798", "lon": "0.1581473", "highway": "stop", "road_direction": 15.110525076465343}, "2912840074": {"lat": "48.0166019", "lon": "0.1566688", "highway": "stop", "road_direction": 177.54530026005182}, "2912840079": {"lat": "48.0166417", "lon": "0.1581144", "highway": "stop", "road_direction": 177.02085271555862}, "2912840080": {"lat": "48.0166486", "lon": "0.1583287", "highway": "stop", "road_direction": 177.84685693015538}, "2912840085": {"lat": "48.0166743", "lon": "0.1591645", "highway": "stop", "road_direction": 358.2263406842282}, "2912840206": {"lat": "48.0168049", "lon": "0.1553172", "highway": "stop", "road_direction": 85.11804404130625}, "2912840456": {"lat": "48.0178950", "lon": "0.1580018", "highway": "stop", "road_direction": 88.49175782162676}, "2912841143": {"lat": "48.0199004", "lon": "0.1537112", "highway": "stop", "road_direction": 146.03362437968372}, "2986070336": {"lat": "47.9967937", "lon": "0.1698873", "highway": "stop", "road_direction": 28.02490800041416}, "2986070337": {"lat": "47.9968145", "lon": "0.1706304", "highway": "stop", "road_direction": 136.26035004087714}, "2986070342": {"lat": "47.9969419", "lon": "0.1695726", "highway": "stop", "road_direction": 239.3278702949612}, "2986070346": {"lat": "47.9970888", "lon": "0.1695205", "highway": "stop", "road_direction": 97.52014285388853}, "2986070363": {"lat": "47.9976438", "lon": "0.1713325", "highway": "stop", "road_direction": 82.60396156224606}, "2986070372": {"lat": "47.9979644", "lon": "0.1705389", "highway": "stop", "road_direction": 83.10916597233987}, "2986070374": {"lat": "47.9980137", "lon": "0.1706043", "highway": "stop", "road_direction": 340.9194084322901}, "2986070377": {"lat": "47.9980823", "lon": "0.1710616", "highway": "stop", "road_direction": 179.67864857221912}, "2986070384": {"lat": "47.9983545", "lon": "0.1697639", "highway": "stop", "road_direction": 255.28001635964216}, "2986070428": {"lat": "48.0013507", "lon": "0.1724720", "highway": "stop", "road_direction": 332.6508138758828}, "2986070455": {"lat": "48.0033230", "lon": "0.1718838", "highway": "stop", "road_direction": 172.7229941505645}, "2986070521": {"lat": "48.0117817", "lon": "0.1615297", "highway": "stop", "road_direction": 31.883776224799725}, "2986070536": {"lat": "48.0124516", "lon": "0.1617219", "highway": "stop", "road_direction": 268.84193760250264}, "2986070551": {"lat": "48.0136613", "lon": "0.1626200", "highway": "stop", "road_direction": 190.04941342026817}, "2986070561": {"lat": "48.0138129", "lon": "0.1615636", "highway": "stop", "road_direction": 357.76679507643456}, "2987841948": {"lat": "47.9979253", "lon": "0.1698894", "highway": "stop", "road_direction": 84.504055915293}, "2987841963": {"lat": "47.9990907", "lon": "0.1775111", "highway": "stop", "road_direction": 348.60897819996717}, "2987841984": {"lat": "48.0004976", "lon": "0.1784160", "highway": "stop", "road_direction": 119.45036634349161}, "2987841986": {"lat": "48.0005450", "lon": "0.1782930", "highway": "stop", "road_direction": 121.23228448925157}, "2987842017": {"lat": "48.0054546", "lon": "0.1740625", "highway": "stop", "road_direction": 74.0838229987994}, "2987842018": {"lat": "48.0054788", "lon": "0.1741796", "highway": "stop", "road_direction": 72.73091369299028}, "2987842036": {"lat": "48.0085000", "lon": "0.1733502", "highway": "stop", "road_direction": 266.0415363873308}, "2987842037": {"lat": "48.0085030", "lon": "0.1734717", "highway": "stop", "road_direction": 269.54582665631034}, "2998501465": {"lat": "48.0004215", "lon": "0.1816657", "highway": "stop", "road_direction": 109.65815711419316}, "2998501485": {"lat": "48.0019540", "lon": "0.1797421", "highway": "stop", "road_direction": 201.65321513152702}, "2998501514": {"lat": "48.0031146", "lon": "0.1787599", "highway": "stop", "road_direction": 107.10696077981429}, "2998501528": {"lat": "48.0037057", "lon": "0.1833403", "highway": "stop", "road_direction": 29.853464894043963}, "2998501736": {"lat": "48.0041833", "lon": "0.1837399", "highway": "stop", "road_direction": 29.28659302217164}, "2998501758": {"lat": "48.0046409", "lon": "0.1841306", "highway": "stop", "road_direction": 29.843286198850713}, "2998501765": {"lat": "48.0049677", "lon": "0.1794052", "highway": "stop", "road_direction": 79.5550724290917}, "2998502039": {"lat": "48.0064260", "lon": "0.1799526", "highway": "stop", "road_direction": 99.54127440619523}, "2998502052": {"lat": "48.0066668", "lon": "0.1815102", "highway": "stop", "road_direction": 351.76947588549854}, "2998502066": {"lat": "48.0069431", "lon": "0.1801175", "highway": "stop", "road_direction": 99.88950101760848}, "2998502136": {"lat": "48.0093513", "lon": "0.1776321", "highway": "stop", "road_direction": 9.562200743355426}, "2998502142": {"lat": "48.0094673", "lon": "0.1810511", "highway": "stop", "road_direction": 284.963891110903}, "2998502154": {"lat": "48.0098158", "lon": "0.1789879", "highway": "stop", "road_direction": 284.04240856842955}, "2998502156": {"lat": "48.0098291", "lon": "0.1789073", "highway": "stop", "road_direction": 102.6370038775017}, "2998502162": {"lat": "48.0100997", "lon": "0.1812728", "highway": "stop", "road_direction": 101.7636241882582}, "2998502171": {"lat": "48.0108536", "lon": "0.1836360", "highway": "stop", "road_direction": 89.72633526896583}, "2998502176": {"lat": "48.0119835", "lon": "0.1837816", "highway": "stop", "road_direction": 5.923915235721624}, "3000300151": {"lat": "48.0108760", "lon": "0.1890721", "highway": "stop", "road_direction": 89.75812303565225}, "3084496370": {"lat": "47.9858400", "lon": "0.1635717", "highway": "stop", "road_direction": 325.89114164947813}, "3084496385": {"lat": "47.9870926", "lon": "0.1642317", "highway": "stop", "road_direction": 325.95506416773776}, "3084496388": {"lat": "47.9874016", "lon": "0.1639557", "highway": "stop", "road_direction": 330.23257230378954}, "3084496406": {"lat": "47.9890069", "lon": "0.1610746", "highway": "stop", "road_direction": 16.015572023282253}, "3084842144": {"lat": "47.9865905", "lon": "0.1646919", "highway": "stop", "road_direction": 328.55289021794016}, "3084842171": {"lat": "47.9875791", "lon": "0.1661838", "highway": "stop", "road_direction": 303.73624470604534}, "3084842194": {"lat": "47.9880263", "lon": "0.1664703", "highway": "stop", "road_direction": 305.34529912838417}, "3084842350": {"lat": "47.9891843", "lon": "0.1717413", "highway": "stop", "road_direction": 219.9522072748295}, "3084842354": {"lat": "47.9892267", "lon": "0.1717924", "highway": "stop", "road_direction": 217.8465930534044}, "3084842373": {"lat": "47.9893951", "lon": "0.1673100", "highway": "stop", "road_direction": 276.7034150584127}, "3084842402": {"lat": "47.9898603", "lon": "0.1677474", "highway": "stop", "road_direction": 318.1471785205445}, "3084842405": {"lat": "47.9898807", "lon": "0.1696311", "highway": "stop", "road_direction": 137.44734599722267}, "3084842640": {"lat": "47.9902077", "lon": "0.1701222", "highway": "stop", "road_direction": 312.1492332588898}, "3084842680": {"lat": "47.9914392", "lon": "0.1734642", "highway": "stop", "road_direction": 103.75326971462931}, "3084842690": {"lat": "47.9915997", "lon": "0.1719466", "highway": "stop", "road_direction": 173.8410864688755}, "3084842723": {"lat": "47.9922201", "lon": "0.1675764", "highway": "stop", "road_direction": 34.00326437387082}, "3084842729": {"lat": "47.9922592", "lon": "0.1673627", "highway": "stop", "road_direction": 215.61025631477088}, "3084842854": {"lat": "47.9927077", "lon": "0.1776261", "highway": "stop", "road_direction": 7.061706100017331}, "3084842915": {"lat": "47.9962883", "lon": "0.1788593", "highway": "stop", "road_direction": 128.1887789489378}, "3239153355": {"lat": "47.9847434", "lon": "0.2401554", "highway": "stop", "road_direction": 192.51208135018337}, "3309871127": {"lat": "47.9840754", "lon": "0.1925845", "highway": "stop", "road_direction": 179.65031378232666}, "3336978298": {"lat": "47.9715346", "lon": "0.1815479", "highway": "stop", "direction": "backward", "road_direction": 319.28195321527255}, "3336978390": {"lat": "47.9734724", "lon": "0.1759125", "highway": "stop", "road_direction": 238.0286607857792}, "3336978405": {"lat": "47.9738113", "lon": "0.1759957", "highway": "stop", "road_direction": 342.6976957279351}, "3336978421": {"lat": "47.9741622", "lon": "0.1757499", "highway": "stop", "road_direction": 132.07051341874165}, "3336978432": {"lat": "47.9744684", "lon": "0.1778884", "highway": "stop", "direction": "forward", "road_direction": 229.87094505962432}, "3336978509": {"lat": "47.9780419", "lon": "0.2006350", "highway": "stop", "road_direction": 307.1268644688275}, "3336978510": {"lat": "47.9785169", "lon": "0.1774018", "highway": "stop", "road_direction": 295.82400846636494}, "3336978526": {"lat": "47.9791150", "lon": "0.1692996", "highway": "stop", "road_direction": 169.2594886094045}, "3336978530": {"lat": "47.9792069", "lon": "0.1692840", "highway": "stop", "road_direction": 179.41220003262583}, "3336978535": {"lat": "47.9794333", "lon": "0.1863997", "highway": "stop", "road_direction": 165.31946842463609}, "3336978544": {"lat": "47.9797562", "lon": "0.1862735", "highway": "stop", "road_direction": 165.21223304574303}, "3336978582": {"lat": "47.9836200", "lon": "0.1837877", "highway": "stop", "road_direction": 319.06665443300585}, "3336978590": {"lat": "47.9839213", "lon": "0.1748889", "highway": "stop", "road_direction": 313.79268383801343}, "3336978591": {"lat": "47.9839732", "lon": "0.1748063", "highway": "stop", "road_direction": 311.813923254292}, "3336978729": {"lat": "47.9847655", "lon": "0.1837624", "highway": "stop", "road_direction": 178.14458013829022}, "3336978757": {"lat": "47.9852047", "lon": "0.1834676", "highway": "stop", "road_direction": 68.33635624387381}, "3336978778": {"lat": "47.9875948", "lon": "0.1856514", "highway": "stop", "road_direction": 59.51238229092765}, "3336978781": {"lat": "47.9879694", "lon": "0.1850245", "highway": "stop", "road_direction": 138.03501698692835}, "3336978788": {"lat": "47.9887099", "lon": "0.1860529", "highway": "stop", "road_direction": 26.68210017432483}, "3395924170": {"lat": "47.9840937", "lon": "0.1914733", "highway": "stop", "road_direction": 179.21901399551265}, "3395924171": {"lat": "47.9841034", "lon": "0.1904917", "highway": "stop", "road_direction": 194.01889204862889}, "3395924393": {"lat": "47.9843402", "lon": "0.1902581", "highway": "stop", "road_direction": 30.616504830096062}, "3395924403": {"lat": "47.9851206", "lon": "0.1865744", "highway": "stop", "direction": "backward", "road_direction": 113.17638920912319}, "3395924441": {"lat": "47.9858700", "lon": "0.1868822", "highway": "stop", "direction": "backward", "road_direction": 280.29900041714563}, "3395924457": {"lat": "47.9859978", "lon": "0.1905060", "highway": "stop", "road_direction": 152.24347670477587}, "3395924461": {"lat": "47.9860475", "lon": "0.1904671", "highway": "stop", "road_direction": 152.30901366122418}, "3395924466": {"lat": "47.9862612", "lon": "0.1962050", "highway": "stop", "road_direction": 200.1364587998672}, "3395924472": {"lat": "47.9864778", "lon": "0.1917054", "highway": "stop", "road_direction": 150.1189719164787}, "3395924483": {"lat": "47.9867704", "lon": "0.1951809", "highway": "stop", "road_direction": 61.98709429130791}, "3395924641": {"lat": "47.9873015", "lon": "0.1941052", "highway": "stop", "road_direction": 61.220177004448445}, "3395924647": {"lat": "47.9873896", "lon": "0.1878993", "highway": "stop", "road_direction": 132.02280706541805}, "3395924662": {"lat": "47.9882090", "lon": "0.1887764", "highway": "stop", "road_direction": 154.35388725464315}, "3395924672": {"lat": "47.9884946", "lon": "0.1839091", "highway": "stop", "road_direction": 69.65742421100516}, "3395924678": {"lat": "47.9886675", "lon": "0.1898362", "highway": "stop", "road_direction": 150.16603871210594}, "3395924688": {"lat": "47.9890247", "lon": "0.1907323", "highway": "stop", "road_direction": 124.47831455083895}, "3542014802": {"lat": "47.9780612", "lon": "0.2114418", "highway": "stop", "road_direction": 182.81755138135472}, "3542014821": {"lat": "47.9784086", "lon": "0.2142469", "highway": "stop", "road_direction": 331.35986070855495}, "3542014883": {"lat": "47.9807551", "lon": "0.2195221", "highway": "stop", "road_direction": 202.8066343772451}, "3580385295": {"lat": "47.9763292", "lon": "0.2037909", "highway": "stop", "road_direction": 133.40061549736902}, "3580385296": {"lat": "47.9763620", "lon": "0.2037356", "highway": "stop", "road_direction": 129.55043835640146}, "3584468311": {"lat": "47.9772839", "lon": "0.2137918", "highway": "stop", "road_direction": 250.19828836808682}, "3584549016": {"lat": "48.0168609", "lon": "0.1995439", "highway": "stop", "road_direction": 153.38577300567115}, "3587683083": {"lat": "48.0184775", "lon": "0.2173528", "highway": "stop", "road_direction": 57.429856020585326}, "3588315927": {"lat": "48.0221016", "lon": "0.2272213", "highway": "stop", "road_direction": 324.61596387343747}, "3588315929": {"lat": "48.0221840", "lon": "0.2273876", "highway": "stop", "road_direction": 327.59951294973644}, "3588315930": {"lat": "48.0222623", "lon": "0.2275469", "highway": "stop", "road_direction": 317.9778437628313}, "3588315931": {"lat": "48.0223420", "lon": "0.2276886", "highway": "stop", "road_direction": 335.35383285390816}, "3588315933": {"lat": "48.0224604", "lon": "0.2279750", "highway": "stop", "road_direction": 345.1246815281168}, "3920633345": {"lat": "47.9759241", "lon": "0.2016436", "highway": "stop", "road_direction": 218.6569578428871}, "3920633348": {"lat": "47.9771734", "lon": "0.2031678", "highway": "stop", "road_direction": 220.33780584139265}, "3920633349": {"lat": "47.9690768", "lon": "0.2040529", "highway": "stop", "road_direction": 97.19235224334315}, "3920633352": {"lat": "47.9724748", "lon": "0.2054122", "highway": "stop", "road_direction": 119.78635818924926}, "3920633353": {"lat": "47.9787498", "lon": "0.2051473", "highway": "stop", "road_direction": 219.35250447294237}, "3920633356": {"lat": "47.9762338", "lon": "0.2019626", "highway": "stop", "road_direction": 129.99214414622588}, "3920635358": {"lat": "47.9787423", "lon": "0.2003594", "highway": "stop", "road_direction": 117.27074243513067}, "3920635361": {"lat": "47.9753231", "lon": "0.2025619", "highway": "stop", "road_direction": 312.9168244026604}, "3920635365": {"lat": "47.9762552", "lon": "0.2000756", "highway": "stop", "road_direction": 283.3040644092479}, "3920635371": {"lat": "47.9788712", "lon": "0.2052830", "highway": "stop", "road_direction": 36.946561166182924}, "3920635374": {"lat": "47.9750063", "lon": "0.2006152", "highway": "stop", "road_direction": 309.27546126955934}, "4028204571": {"lat": "47.9711012", "lon": "0.2038560", "highway": "stop", "road_direction": 108.00728452665018}, "4028204580": {"lat": "47.9703239", "lon": "0.2034792", "highway": "stop", "road_direction": 108.49004014213668}, "4028208332": {"lat": "47.9795395", "lon": "0.1932778", "highway": "stop", "road_direction": 116.46559742204383}, "4289335467": {"lat": "48.0194805", "lon": "0.2193246", "highway": "stop", "road_direction": 315.83423202721565}, "4424651500": {"lat": "48.0250651", "lon": "0.1802472", "highway": "stop", "road_direction": 341.7525780897814}, "4566627933": {"lat": "48.0076648", "lon": "0.1989878", "highway": "stop", "direction": "forward", "road_direction": 291.1716329444703}, "4589689068": {"lat": "48.0083499", "lon": "0.2003493", "highway": "stop", "road_direction": 245.91199409793586}, "4624921009": {"lat": "48.0083369", "lon": "0.1997983", "highway": "stop", "direction": "forward", "road_direction": 313.42248518218895}, "4625506941": {"lat": "47.9956501", "lon": "0.1937980", "highway": "stop", "direction": "forward", "road_direction": 22.422372620381783}, "4855599607": {"lat": "48.0014804", "lon": "0.1909253", "highway": "stop", "direction": "backward", "road_direction": 274.2716151175189}, "4855629738": {"lat": "47.9862717", "lon": "0.1797103", "highway": "stop", "road_direction": 322.2463452200461}, "4855768444": {"lat": "48.0169172", "lon": "0.1995047", "highway": "stop", "road_direction": 153.24221099492763}, "4963583620": {"lat": "47.9795984", "lon": "0.1980898", "highway": "stop", "road_direction": 262.5044186386867}, "5086575998": {"lat": "47.9854891", "lon": "0.1838466", "highway": "stop", "road_direction": 249.5751796546377}, "5086576001": {"lat": "47.9867506", "lon": "0.1822941", "highway": "stop", "road_direction": 321.22095623400605}, "5103125625": {"lat": "47.9961400", "lon": "0.2019416", "highway": "stop", "road_direction": 248.94725269061846}, "5206568427": {"lat": "48.0137011", "lon": "0.1672899", "highway": "stop", "direction": "forward", "road_direction": 93.28817282284473}, "5363551663": {"lat": "47.9962027", "lon": "0.1868372", "highway": "stop", "road_direction": 208.6706982958712}, "5670406822": {"lat": "48.0091656", "lon": "0.1956524", "highway": "stop", "direction": "backward", "road_direction": 214.742162032107}, "5684479645": {"lat": "47.9809066", "lon": "0.1807807", "highway": "stop", "road_direction": 344.55076913479}, "5745173623": {"lat": "47.9779938", "lon": "0.1774967", "highway": "stop", "direction": "forward", "road_direction": 113.37606146791104}, "5745173630": {"lat": "47.9783823", "lon": "0.1777801", "highway": "stop", "direction": "backward", "road_direction": 295.6823239012567}, "5747449101": {"lat": "47.9756196", "lon": "0.1767875", "highway": "stop", "road_direction": 25.955334082907715}, "5747515301": {"lat": "47.9728956", "lon": "0.1737052", "highway": "stop", "direction": "backward", "road_direction": 258.29992383188545}, "5754359275": {"lat": "47.9796177", "lon": "0.1801008", "highway": "stop", "direction": "forward", "road_direction": 257.225928928608}, "5754359289": {"lat": "47.9785735", "lon": "0.1804442", "highway": "stop", "direction": "forward", "road_direction": 75.02562625193744}, "5755931867": {"lat": "47.9703884", "lon": "0.1801070", "highway": "stop", "direction": "forward", "road_direction": 48.355951699890234}, "5756675557": {"lat": "47.9867561", "lon": "0.1819986", "highway": "stop", "direction": "forward", "road_direction": 276.39728522667644}, "5756798811": {"lat": "47.9759113", "lon": "0.1730919", "highway": "stop", "direction": "backward", "road_direction": 81.77261511286154}, "5786573741": {"lat": "47.9824941", "lon": "0.1860527", "highway": "stop", "direction": "forward", "road_direction": 164.05930923966164}, "5870530479": {"lat": "47.9928099", "lon": "0.2047068", "highway": "stop", "direction": "backward", "road_direction": 62.90584895616587}, "5873308271": {"lat": "47.9912385", "lon": "0.2270964", "highway": "stop", "direction": "backward", "road_direction": 211.4258590858137}, "5887433389": {"lat": "47.9945165", "lon": "0.1965832", "highway": "stop", "direction": "backward", "road_direction": 25.351765370371727}, "5892849879": {"lat": "47.9781217", "lon": "0.2066822", "highway": "stop", "direction": "forward", "road_direction": 29.40513026100565}, "5926177604": {"lat": "47.9696424", "lon": "0.2041020", "highway": "stop", "road_direction": 288.3953324608246}, "5926533151": {"lat": "47.9977795", "lon": "0.1937386", "highway": "stop", "road_direction": 269.49932028416333}, "5982741817": {"lat": "47.9904298", "lon": "0.1943617", "highway": "stop", "direction": "backward", "road_direction": 148.4015039800232}, "6001148672": {"lat": "48.0031565", "lon": "0.1990343", "highway": "stop", "road_direction": 56.805307815398315}, "6005359420": {"lat": "48.0038023", "lon": "0.1917591", "highway": "stop", "direction": "backward", "road_direction": 88.18154771668058}, "6005359422": {"lat": "48.0031044", "lon": "0.1915599", "highway": "stop", "direction": "backward", "road_direction": 79.95901155733483}, "6007057361": {"lat": "48.0061230", "lon": "0.1919008", "highway": "stop", "direction": "forward", "road_direction": 219.21645188248084}, "6103657641": {"lat": "47.9916485", "lon": "0.1983218", "highway": "stop", "direction": "backward", "road_direction": 150.7781288199474}, "6126468705": {"lat": "47.9954415", "lon": "0.2064017", "highway": "stop", "direction": "forward", "road_direction": 105.55794910933702}, "6126468745": {"lat": "47.9953234", "lon": "0.2067751", "highway": "stop", "direction": "backward", "road_direction": 194.3708875185032}}